{
  "links" : {
    "next" : "https://api.nasa.gov/neo/rest/v1/feed?start_date=2000-11-16&end_date=2000-11-16&detailed=true&api_key=t0TVs3DtDT2H8Oy2Zy8m2eVrNsAVKAexjcZXUckd",
    "prev" : "https://api.nasa.gov/neo/rest/v1/feed?start_date=2000-11-14&end_date=2000-11-14&detailed=true&api_key=t0TVs3DtDT2H8Oy2Zy8m2eVrNsAVKAexjcZXUckd",
    "self" : "https://api.nasa.gov/neo/rest/v1/feed?start_date=2000-11-15&end_date=2000-11-15&detailed=true&api_key=t0TVs3DtDT2H8Oy2Zy8m2eVrNsAVKAexjcZXUckd"
  },
  "element_count" : 3,
  "near_earth_objects" : {
    "2000-11-15" : [ {
      "links" : {
        "self" : "https://api.nasa.gov/neo/rest/v1/neo/3063823?api_key=t0TVs3DtDT2H8Oy2Zy8m2eVrNsAVKAexjcZXUckd"
      },
      "neo_reference_id" : "3063823",
      "name" : "(2000 WP19)",
      "nasa_jpl_url" : "http://ssd.jpl.nasa.gov/sbdb.cgi?sstr=3063823",
      "absolute_magnitude_h" : 22.7,
      "estimated_diameter" : {
        "kilometers" : {
          "estimated_diameter_min" : 0.0766575574,
          "estimated_diameter_max" : 0.1714115092
        },
        "meters" : {
          "estimated_diameter_min" : 76.6575573531,
          "estimated_diameter_max" : 171.4115092306
        },
        "miles" : {
          "estimated_diameter_min" : 0.0476327831,
          "estimated_diameter_max" : 0.1065101409
        },
        "feet" : {
          "estimated_diameter_min" : 251.5011804664,
          "estimated_diameter_max" : 562.3737359442
        }
      },
      "is_potentially_hazardous_asteroid" : false,
      "close_approach_data" : [ {
        "close_approach_date" : "2000-11-15",
        "epoch_date_close_approach" : 974275200000,
        "relative_velocity" : {
          "kilometers_per_second" : "9.5728085527",
          "kilometers_per_hour" : "34462.1107898159",
          "miles_per_hour" : "21413.4154515942"
        },
        "miss_distance" : {
          "astronomical" : "0.0301356977",
          "lunar" : "11.7227869034",
          "kilometers" : "4508236.5",
          "miles" : "2801288.25"
        },
        "orbiting_body" : "Earth"
      } ],
      "orbital_data" : {
        "orbit_id" : "20",
        "orbit_determination_date" : "2017-04-06 09:16:42",
        "orbit_uncertainty" : "0",
        "minimum_orbit_intersection" : ".00396286",
        "jupiter_tisserand_invariant" : "6.857",
        "epoch_osculation" : "2458000.5",
        "eccentricity" : ".2882777731177849",
        "semi_major_axis" : ".8546867451024968",
        "inclination" : "7.682031113581086",
        "ascending_node_longitude" : "55.73670685191448",
        "orbital_period" : "288.6083420853373",
        "perihelion_distance" : ".6082995535110611",
        "perihelion_argument" : "222.1878128921679",
        "aphelion_distance" : "1.101073936693932",
        "perihelion_time" : "2458125.324859053822",
        "mean_anomaly" : "204.2978157364253",
        "mean_motion" : "1.247365191868062",
        "equinox" : "J2000"
      }
    }, {
      "links" : {
        "self" : "https://api.nasa.gov/neo/rest/v1/neo/3143084?api_key=t0TVs3DtDT2H8Oy2Zy8m2eVrNsAVKAexjcZXUckd"
      },
      "neo_reference_id" : "3143084",
      "name" : "(2002 VX91)",
      "nasa_jpl_url" : "http://ssd.jpl.nasa.gov/sbdb.cgi?sstr=3143084",
      "absolute_magnitude_h" : 24.3,
      "estimated_diameter" : {
        "kilometers" : {
          "estimated_diameter_min" : 0.0366906138,
          "estimated_diameter_max" : 0.0820427065
        },
        "meters" : {
          "estimated_diameter_min" : 36.6906137531,
          "estimated_diameter_max" : 82.0427064882
        },
        "miles" : {
          "estimated_diameter_min" : 0.0227984834,
          "estimated_diameter_max" : 0.0509789586
        },
        "feet" : {
          "estimated_diameter_min" : 120.3760332259,
          "estimated_diameter_max" : 269.1689931548
        }
      },
      "is_potentially_hazardous_asteroid" : false,
      "close_approach_data" : [ {
        "close_approach_date" : "2000-11-15",
        "epoch_date_close_approach" : 974275200000,
        "relative_velocity" : {
          "kilometers_per_second" : "18.3381589205",
          "kilometers_per_hour" : "66017.3721139782",
          "miles_per_hour" : "41020.6276893772"
        },
        "miss_distance" : {
          "astronomical" : "0.3856758682",
          "lunar" : "150.027923584",
          "kilometers" : "57696292",
          "miles" : "35850812"
        },
        "orbiting_body" : "Earth"
      } ],
      "orbital_data" : {
        "orbit_id" : "15",
        "orbit_determination_date" : "2017-04-06 09:14:37",
        "orbit_uncertainty" : "2",
        "minimum_orbit_intersection" : ".00180294",
        "jupiter_tisserand_invariant" : "6.139",
        "epoch_osculation" : "2458000.5",
        "eccentricity" : ".2012707478278015",
        "semi_major_axis" : ".9839990828843111",
        "inclination" : "2.341697091268065",
        "ascending_node_longitude" : "216.4257768385215",
        "orbital_period" : "356.5253930619381",
        "perihelion_distance" : ".785948851610315",
        "perihelion_argument" : "78.74582230726236",
        "aphelion_distance" : "1.182049314158307",
        "perihelion_time" : "2457851.646993451932",
        "mean_anomaly" : "150.303690564882",
        "mean_motion" : "1.009745748846165",
        "equinox" : "J2000"
      }
    }, {
      "links" : {
        "self" : "https://api.nasa.gov/neo/rest/v1/neo/3648469?api_key=t0TVs3DtDT2H8Oy2Zy8m2eVrNsAVKAexjcZXUckd"
      },
      "neo_reference_id" : "3648469",
      "name" : "(2013 ST)",
      "nasa_jpl_url" : "http://ssd.jpl.nasa.gov/sbdb.cgi?sstr=3648469",
      "absolute_magnitude_h" : 24.7,
      "estimated_diameter" : {
        "kilometers" : {
          "estimated_diameter_min" : 0.0305179233,
          "estimated_diameter_max" : 0.0682401509
        },
        "meters" : {
          "estimated_diameter_min" : 30.5179232594,
          "estimated_diameter_max" : 68.2401509401
        },
        "miles" : {
          "estimated_diameter_min" : 0.0189629525,
          "estimated_diameter_max" : 0.0424024508
        },
        "feet" : {
          "estimated_diameter_min" : 100.1244233463,
          "estimated_diameter_max" : 223.8850168104
        }
      },
      "is_potentially_hazardous_asteroid" : false,
      "close_approach_data" : [ {
        "close_approach_date" : "2000-11-15",
        "epoch_date_close_approach" : 974275200000,
        "relative_velocity" : {
          "kilometers_per_second" : "6.9590014439",
          "kilometers_per_hour" : "25052.4051980894",
          "miles_per_hour" : "15566.5903298906"
        },
        "miss_distance" : {
          "astronomical" : "0.1678715217",
          "lunar" : "65.3020248413",
          "kilometers" : "25113222",
          "miles" : "15604633"
        },
        "orbiting_body" : "Earth"
      } ],
      "orbital_data" : {
        "orbit_id" : "11",
        "orbit_determination_date" : "2017-04-06 08:44:38",
        "orbit_uncertainty" : "6",
        "minimum_orbit_intersection" : ".0302126",
        "jupiter_tisserand_invariant" : "6.745",
        "epoch_osculation" : "2458000.5",
        "eccentricity" : ".2236385349754972",
        "semi_major_axis" : ".8729409927599596",
        "inclination" : "10.83660347533255",
        "ascending_node_longitude" : "182.6653172473011",
        "orbital_period" : "297.9036052584413",
        "perihelion_distance" : ".6777177480190661",
        "perihelion_argument" : "24.59716845485712",
        "aphelion_distance" : "1.068164237500853",
        "perihelion_time" : "2457932.304011101556",
        "mean_anomaly" : "82.41107381745688",
        "mean_motion" : "1.208444589610414",
        "equinox" : "J2000"
      }
    } ]
  }
}